{"type":"FeatureCollection","features":[{"type":"Feature","id":1,"geometry":{"type":"Point","coordinates":[-75.002479999999935,4.7721000000000231]},"properties":{"OBJECTID":1,"OBJECTID_1":"1M","Tipo":"Meteorológica","Municipio":"Venadillo","Vereda":"Corregimiento Junín (V/ La Aguada)","Predio___Lugar":null,"Corriente_hídrica":"Río Venadillo","Nombre_estación":"Junin","Subzona_Hidrográfica":"Río Recio Venadillo","Latitud":4.7721,"Longitud":-75.002480000000006,"Codigo":null}},{"type":"Feature","id":2,"geometry":{"type":"Point","coordinates":[-74.929155999999978,4.7129361000000358]},"properties":{"OBJECTID":2,"OBJECTID_1":"2M","Tipo":"Meteorológica","Municipio":"Venadillo","Vereda":"Zona Urbana","Predio___Lugar":null,"Corriente_hídrica":"Río Venadillo","Nombre_estación":" FedeArroz","Subzona_Hidrográfica":"Río Recio Venadillo","Latitud":4.7129361000000003,"Longitud":-74.929156000000006,"Codigo":null}},{"type":"Feature","id":3,"geometry":{"type":"Point","coordinates":[-74.830982999999947,4.7623639000000253]},"properties":{"OBJECTID":3,"OBJECTID_1":"3M","Tipo":"Meteorológica","Municipio":"Venadillo","Vereda":"vereda Cofradia Gallego","Predio___Lugar":null,"Corriente_hídrica":"Río Venadillo","Nombre_estación":"Verdum","Subzona_Hidrográfica":"Río Recio Venadillo","Latitud":4.7623639000000004,"Longitud":-74.830983000000003,"Codigo":null}},{"type":"Feature","id":4,"geometry":{"type":"Point","coordinates":[-74.884439999999984,4.7663900000000581]},"properties":{"OBJECTID":4,"OBJECTID_1":"4M","Tipo":"Meteorológica","Municipio":"Venadillo","Vereda":"Corregimiento La Argentina","Predio___Lugar":null,"Corriente_hídrica":"Río Venadillo","Nombre_estación":"Argentina","Subzona_Hidrográfica":"Río Recio Venadillo","Latitud":4.7663900000000003,"Longitud":-74.884439999999998,"Codigo":null}},{"type":"Feature","id":5,"geometry":{"type":"Point","coordinates":[-74.877289999999959,4.6501200000000722]},"properties":{"OBJECTID":5,"OBJECTID_1":"5M","Tipo":"Meteorológica","Municipio":"Venadillo","Vereda":"Vereda Palmarosa","Predio___Lugar":null,"Corriente_hídrica":"Río Venadillo","Nombre_estación":"La Sonora","Subzona_Hidrográfica":"Río Recio Venadillo","Latitud":4.6501200000000003,"Longitud":-74.877290000000002,"Codigo":null}},{"type":"Feature","id":6,"geometry":{"type":"Point","coordinates":[-75.290211109999973,4.493780556000047]},"properties":{"OBJECTID":6,"OBJECTID_1":"6M","Tipo":"Meteorológica","Municipio":"Ibagué","Vereda":"Puerto Perú Llanitos P/b","Predio___Lugar":null,"Corriente_hídrica":"Río Coello","Nombre_estación":"CAV\nCORTOLIMA","Subzona_Hidrográfica":"Río Coello","Latitud":4.4937805559999999,"Longitud":-75.290211110000001,"Codigo":null}},{"type":"Feature","id":7,"geometry":{"type":"Point","coordinates":[-75.67127499999998,3.8836944440000707]},"properties":{"OBJECTID":7,"OBJECTID_1":"7M","Tipo":"Meteorológica","Municipio":"Chaparral","Vereda":"El Cairo","Predio___Lugar":null,"Corriente_hídrica":"Río Amoyá","Nombre_estación":"CHAPARRAL. Hermosas\nChaparral ","Subzona_Hidrográfica":"Río Amoyá","Latitud":3.8836944440000001,"Longitud":-75.671274999999994,"Codigo":null}},{"type":"Feature","id":8,"geometry":{"type":"Point","coordinates":[-75.332686109999941,4.5354166670000495]},"properties":{"OBJECTID":8,"OBJECTID_1":"8M","Tipo":"Meteorológica","Municipio":"Ibagué","Vereda":"Juntas","Predio___Lugar":null,"Corriente_hídrica":"Quebrada Guamal Río Coello","Nombre_estación":"COMBEIMA-Juntas\nQ. El Guamal","Subzona_Hidrográfica":"Río Coello","Latitud":4.5354166669999998,"Longitud":-75.332686109999997,"Codigo":null}},{"type":"Feature","id":9,"geometry":{"type":"Point","coordinates":[-75.21118888999996,4.433288889000039]},"properties":{"OBJECTID":9,"OBJECTID_1":"9M","Tipo":"Meteorológica","Municipio":"Ibagué","Vereda":"Zona Urbana","Predio___Lugar":null,"Corriente_hídrica":"Río Chípalo","Nombre_estación":"CORTOLIMA \nSede Central ","Subzona_Hidrográfica":"Río Totare ","Latitud":4.433288889,"Longitud":-75.211188890000003,"Codigo":null}},{"type":"Feature","id":10,"geometry":{"type":"Point","coordinates":[-75.146866669999952,5.1590055560000678]},"properties":{"OBJECTID":10,"OBJECTID_1":"10M","Tipo":"Meteorológica","Municipio":"Fresno","Vereda":"Raizal II","Predio___Lugar":null,"Corriente_hídrica":"Río Guarinó","Nombre_estación":"Fresno\nGuarino","Subzona_Hidrográfica":"Río Guarinó","Latitud":5.1590055560000003,"Longitud":-75.146866669999994,"Codigo":null}},{"type":"Feature","id":11,"geometry":{"type":"Point","coordinates":[-74.913722219999954,4.8547750000000747]},"properties":{"OBJECTID":11,"OBJECTID_1":"11M","Tipo":"Meteorológica","Municipio":"Lérida","Vereda":"Zona Urbana","Predio___Lugar":null,"Corriente_hídrica":"Río Lagunilla","Nombre_estación":"Lérida\nCORTOLIMA ","Subzona_Hidrográfica":"Río Lagunilla","Latitud":4.8547750000000001,"Longitud":-74.913722219999997,"Codigo":null}},{"type":"Feature","id":12,"geometry":{"type":"Point","coordinates":[-74.839083329999937,3.8805861110000706]},"properties":{"OBJECTID":12,"OBJECTID_1":"12M","Tipo":"Meteorológica","Municipio":"Purificación","Vereda":"San Antonio","Predio___Lugar":null,"Corriente_hídrica":"Río Prado","Nombre_estación":"Purificación\nSan Antonio","Subzona_Hidrográfica":"Directos magdalena entre los Ríos Cabrera y Sumapaz","Latitud":3.8805861109999999,"Longitud":-74.839083329999994,"Codigo":null}},{"type":"Feature","id":13,"geometry":{"type":"Point","coordinates":[-74.861802779999948,3.7561444440000287]},"properties":{"OBJECTID":13,"OBJECTID_1":"13M","Tipo":"Meteorológica","Municipio":"Prado","Vereda":"Isla del Sol","Predio___Lugar":null,"Corriente_hídrica":"Río Magdalena ","Nombre_estación":"Prado\nHidróprado","Subzona_Hidrográfica":"Río Prado","Latitud":3.7561444439999998,"Longitud":-74.861802780000005,"Codigo":null}},{"type":"Feature","id":14,"geometry":{"type":"Point","coordinates":[-75.532588889999943,4.1407305560000509]},"properties":{"OBJECTID":14,"OBJECTID_1":"14M","Tipo":"Meteorológica","Municipio":"Roncesvalles","Vereda":"El Retorno ","Predio___Lugar":null,"Corriente_hídrica":"Río Chilí","Nombre_estación":"Santa Helena\nRoncesvalles ","Subzona_Hidrográfica":"Río Cucuana","Latitud":4.1407305560000003,"Longitud":-75.53258889,"Codigo":null}},{"type":"Feature","id":15,"geometry":{"type":"Point","coordinates":[-74.575466669999969,4.180377778000036]},"properties":{"OBJECTID":15,"OBJECTID_1":"15M","Tipo":"Meteorológica","Municipio":"Melgar","Vereda":"La Arabia","Predio___Lugar":null,"Corriente_hídrica":"Quebrada La Melgara","Nombre_estación":"Melgar\nLa Arabia","Subzona_Hidrográfica":"Río Sumapaz","Latitud":4.1803777780000004,"Longitud":-74.575466669999997,"Codigo":null}},{"type":"Feature","id":16,"geometry":{"type":"Point","coordinates":[-74.588934999999935,3.9539210000000367]},"properties":{"OBJECTID":16,"OBJECTID_1":"16M","Tipo":"Meteorológica","Municipio":"Villarrica ","Vereda":"zona rural","Predio___Lugar":null,"Corriente_hídrica":"Quebrada Botadero","Nombre_estación":"Villarrica ","Subzona_Hidrográfica":"Río Prado","Latitud":3.9539209999999998,"Longitud":-74.588935000000006,"Codigo":null}}]}

