{"type":"FeatureCollection","features":[{"type":"Feature","id":1,"geometry":{"type":"Point","coordinates":[-74.849999999999966,4.7179620000000568]},"properties":{"OBJECTID":1,"OBJECTID_1":"1H","Tipo":"Hidrométrica","Municipio":"Venadillo","Vereda":"Vile","Predio___Lugar":"Hacienda Vile Canta Rana","Corriente_hídrica":"Venadillo bajo","Nombre_estación":"Estación Rio venadillo bajo ","Subzona_Hidrográfica":"Río Recio Venadillo","Latitud":4.717962,"Longitud":-74.849999999999994,"Codigo":"CAFAM"}},{"type":"Feature","id":2,"geometry":{"type":"Point","coordinates":[-74.858609999999942,4.7180600000000368]},"properties":{"OBJECTID":2,"OBJECTID_1":"2H","Tipo":"Hidrométrica","Municipio":"Venadillo","Vereda":"Vile","Predio___Lugar":"Hacienda Vile Canta Rana","Corriente_hídrica":"Q.Palmarosa","Nombre_estación":"Estación Palmarosa","Subzona_Hidrográfica":"Río Recio Venadillo","Latitud":4.7180600000000004,"Longitud":-74.858609999999999,"Codigo":"CAFAM"}},{"type":"Feature","id":3,"geometry":{"type":"Point","coordinates":[-74.922238999999934,4.7232060000000615]},"properties":{"OBJECTID":3,"OBJECTID_1":"3H","Tipo":"Hidrométrica","Municipio":"Venadillo","Vereda":"Zona Urbana","Predio___Lugar":"Barrio Caracoli carrera 1a No 1-6","Corriente_hídrica":"Venadillo","Nombre_estación":"CAFAM","Subzona_Hidrográfica":"Río Recio Venadillo","Latitud":4.7232060000000002,"Longitud":-74.922239000000005,"Codigo":"CAFAM"}},{"type":"Feature","id":4,"geometry":{"type":"Point","coordinates":[-74.93277999999998,4.7208300000000349]},"properties":{"OBJECTID":4,"OBJECTID_1":"4H","Tipo":"Hidrométrica","Municipio":"Venadillo","Vereda":"Zona Urbana","Predio___Lugar":"Barrio turmana parte baja Kra 11 #5-4","Corriente_hídrica":"Q.Galapo","Nombre_estación":"Estació Q. Galapo","Subzona_Hidrográfica":"Río Recio Venadillo","Latitud":4.7208300000000003,"Longitud":-74.932779999999994,"Codigo":"CAFAM"}},{"type":"Feature","id":5,"geometry":{"type":"Point","coordinates":[-74.936481999999955,4.7415660000000344]},"properties":{"OBJECTID":5,"OBJECTID_1":"5H","Tipo":"Hidrométrica","Municipio":"Venadillo","Vereda":"El Palmar","Predio___Lugar":"El Rodeo","Corriente_hídrica":"Q. El Palmar","Nombre_estación":"Estación Palmar","Subzona_Hidrográfica":"Río Recio Venadillo","Latitud":4.7415659999999997,"Longitud":-74.936481999999998,"Codigo":"CAFAM"}},{"type":"Feature","id":6,"geometry":{"type":"Point","coordinates":[-74.631374999999935,4.1954030000000557]},"properties":{"OBJECTID":6,"OBJECTID_1":"6H","Tipo":"Hidrométrica","Municipio":"Melgar","Vereda":"Zona Urbana","Predio___Lugar":"\u003cNull\u003e","Corriente_hídrica":"Qda. La Melgara","Nombre_estación":"Cafam","Subzona_Hidrográfica":"Río Sumapaz","Latitud":4.1954029999999998,"Longitud":-74.631375000000006,"Codigo":"\u003cNull\u003e"}},{"type":"Feature","id":7,"geometry":{"type":"Point","coordinates":[-75.495116999999937,4.1259070000000406]},"properties":{"OBJECTID":7,"OBJECTID_1":"7H","Tipo":"Hidrométrica","Municipio":"Roncesvalles \nSanta Elena ","Vereda":"Santa Quebrada ","Predio___Lugar":"\u003cNull\u003e","Corriente_hídrica":"Río Chili","Nombre_estación":"Río Chili","Subzona_Hidrográfica":"Río Cucuana","Latitud":4.1259069999999998,"Longitud":-75.495116999999993,"Codigo":"\u003cNull\u003e"}},{"type":"Feature","id":8,"geometry":{"type":"Point","coordinates":[-75.099643999999955,4.3036170000000311]},"properties":{"OBJECTID":8,"OBJECTID_1":"8H","Tipo":"Hidrométrica","Municipio":"San Luis","Vereda":"Buenos Aires","Predio___Lugar":"\u003cNull\u003e","Corriente_hídrica":"Río Coello","Nombre_estación":"Río Coello","Subzona_Hidrográfica":"Río Coello","Latitud":4.303617,"Longitud":-75.099643999999998,"Codigo":"\u003cNull\u003e"}},{"type":"Feature","id":9,"geometry":{"type":"Point","coordinates":[-74.869293999999968,5.3001750000000243]},"properties":{"OBJECTID":9,"OBJECTID_1":"9H","Tipo":"Hidrométrica","Municipio":"Mariquita","Vereda":"Herrano ","Predio___Lugar":"\u003cNull\u003e","Corriente_hídrica":"Río Guarinó","Nombre_estación":"Río Guarinó","Subzona_Hidrográfica":"Río Guarinó","Latitud":5.3001750000000003,"Longitud":-74.869293999999996,"Codigo":"\u003cNull\u003e"}},{"type":"Feature","id":10,"geometry":{"type":"Point","coordinates":[-74.894410999999934,3.7540220000000204]},"properties":{"OBJECTID":10,"OBJECTID_1":"10H","Tipo":"Hidrométrica","Municipio":"Prado","Vereda":"El Puerto ","Predio___Lugar":"CELSIA","Corriente_hídrica":"Río Prado ","Nombre_estación":"RIO PRADO","Subzona_Hidrográfica":"Río Prado ","Latitud":3.754022,"Longitud":-74.894411000000005,"Codigo":"\u003cNull\u003e"}},{"type":"Feature","id":11,"geometry":{"type":"Point","coordinates":[-74.863307999999961,4.772811000000047]},"properties":{"OBJECTID":11,"OBJECTID_1":"11H","Tipo":"Hidrométrica","Municipio":"Ambalema","Vereda":"Pajonales Tau tau","Predio___Lugar":"\u003cNull\u003e","Corriente_hídrica":"Río Recio","Nombre_estación":"Río Recio","Subzona_Hidrográfica":"Río Recio - Venadillo","Latitud":4.7728109999999999,"Longitud":-74.863308000000004,"Codigo":"\u003cNull\u003e"}},{"type":"Feature","id":12,"geometry":{"type":"Point","coordinates":[-74.872843999999986,4.7081780000000322]},"properties":{"OBJECTID":12,"OBJECTID_1":"12H","Tipo":"Hidrométrica","Municipio":"Venadillo","Vereda":"Buenavista","Predio___Lugar":"\u003cNull\u003e","Corriente_hídrica":"Río Venadillo","Nombre_estación":"Río Venadillo","Subzona_Hidrográfica":"Río Recio - Venadillo","Latitud":4.7081780000000002,"Longitud":-74.872844000000001,"Codigo":"\u003cNull\u003e"}},{"type":"Feature","id":13,"geometry":{"type":"Point","coordinates":[-75.568967999999984,3.79417600000005]},"properties":{"OBJECTID":13,"OBJECTID_1":"13H","Tipo":"Hidrométrica","Municipio":"Chaparral","Vereda":"Angostura Hermosas ","Predio___Lugar":null,"Corriente_hídrica":"Río Amoya ","Nombre_estación":"Río Amoya (SIN TELEMETRIA)","Subzona_Hidrográfica":"Río Amoya ","Latitud":3.7941760000000002,"Longitud":-75.568967999999998,"Codigo":null}}]}
